STARLINK-4045           
1 53152U 22083W   26068.54310215 -.00001149  00000+0 -54076-4 0  9996
2 53152  53.2166 164.7781 0001553 102.5872 257.5294 15.08842554201339
DISKSAT D               
1 67221U 25305C   26068.55257179  .00011599  00000+0  76841-3 0  9999
2 67221  45.0023 251.6339 0003712 319.2749  40.7848 15.07416577 12277
